ZCZC 123
SMCU20 MUHV 310000
AAXX 31001
78310 01470 70303 10250 20214 30094 40104 56004 60111 70398 8597/
333 10320 20240 31/// 54416 56999 57982 59015 60117 70114 82818
87359 849// 90425 91118 91536 92013=
78315 01462 70402 10233 20228 30037 40102 58001 60011 79598 8597/
333 10320 20231 31/// 54416 56599 57992 59008 60017 70014 83818
86360 829// 555 12301=
78318 01458 70000 10234 20214 30112 40116 53002 60171 78098 84903
333 10318 20232 32/// 56909 57922 59003 60057 70193 82818 87073
829//=
78322 11559 73403 10257 20189 30097 40114 53009 60001 70522 85963
333 06999 10336 20210 30/// 57981 59009 83820 84080 829// 90411
91109 91527=
78324 11/02 71804 10284 20230 30091 40102 55000 60001 70522 82278
333 10351 20228 30/// 56999 57873 59011 70008 828// 84356 87270=
78325 01558 72003 10222 20203 30055 40112 53014 60701 72961 879//
333 10311 20204 30/// 56099 57990 59007 60707 70700 83930=
78328 nil=
78333 11410 71703 10288 20241 30104 40111 52010 60001 70592 83248
333 10319 20227 30/// 57884 59001 83818 87271 90457 91109 91516=
78344 11556 51801 10279 20225 30070 40118 53020 60001 70522 83272
333 10309 20226 30/// 56999 57833 58000 83820 84358=
78345 01460 70000 10261 20245 30120 40123 52021 69981 76162 878//
333 10286 20230 3//// 56099 58008 69987 70008 81816 87623 92000=
78348 01456 70000 10233 20230 30071 40124 53025 60361 70596 86973
333 10310 20221 32/// 57935 58002 60087 70361 86816 86456 87070
819//=
78349 11/58 81801 10270 20234 39995 40105 53008 60001 70522 8342/
333 10308 20225 30/// 50304 59001 818// 84622 88460=
78351 11550 71602 10277 20240 30110 40112 53014 69911 70062 878//
333 10287 20239 31/// 56999 58007 70178 81826 87633=
78353 12550 71801 10284 20232 30104 40126 53008 60001 70322 85908
333 10289 20234 30/// 56909 57970 58005 81820 83626 87280 819//=
78355 01559 71701 10256 20232 39983 40118 53015 69921 76162 878//
333 05999 10266 20220 31/// 58010 69917 70002 83820 85626=
78358 11530 70701 10280 20252 30102 40117 52013 60001 71792 879//
333 10308 20231 31/// 57960 58003 70053 81823 87629 819//=
78360 01460 81306 10278 20234 30104 40115 53011 69901 76162 8592/
333 10302 20251 31/// 57986 59001 69907 70017 81817 83630 88458
819// 92034=
78363 11858 71401 10262 20222 39987 40101 51011 69911 70262 8707/
333 10274 20218 31/// 56099 58004 70358 87458=
78365 11568 70000 10275 20249 30111 40116 53011 60001 70522 84923
333 10300 20238 31/// 56009 57945 59003 70037 84820 87457 819//
92010=
78369 11462 70000 10290 20230 30106 40115 51001 60001 71322 83933
333 10316 20244 30/// 56999 57930 59012 82818 86070 819// 92000=


nnnn


ZCZC 123
SMCU40 MUHV 310000
AAXX 31001
78308 11556 70000 10261 20234 39845 40105 53022 60001 70592 87900
333 06200 10305 20222 31/// 57924 58000 86820 819// 555 10702=
78309 01456 60903 10264 20241 30078 40113 53010 60151 71798 84966
333 09999 10306 20228 31/// 57922 59008 69947 70149 84817 86270
819//=
78312 01562 61001 10220 20213 30071 40098 56009 60071 70598 84903
333 10319 20214 32/// 57933 59012 60047 70151 83820 819//=
78313 01456 70000 10232 20229 30068 40100 50005 60121 76198 8497/
333 10328 20232 32/// 54218 56999 57966 59009 60127 70122 82818
85460 829//=
78314 01450 70201 10229 20214 30069 40104 55008 60011 79598 879//
333 10323 20229 31/// 56999 57991 59013 60017 70012 82818 86920=
78316 01460 71001 10228 20213 30060 40115 57005 60101 72196 84973
333 10312 20222 32/// 56299 57933 59018 60037 70102 83818 84075
819//=
78317 01568 73501 10240 20227 30052 40102 58010 60021 71596 86973
333 10308 20240 31/// 56999 57952 59011 69907 70057 83820 87463
819//=
78319 12456 80000 10270 20248 39917 40098 53015 60001 81207 333
01909 10282 20225 31/// 58005 70013 81816 88270=
78320 12550 73501 10254 20204 30103 40116 53009 60001 70322 84943
333 06999 10324 20227 30/// 57913 59004 83820 85361 819//=
78321 11459 72001 10273 20237 30068 40104 53009 60101 71798 84906
333 10329 20229 32/// 56206 57982 59005 70103 83817 85270 819//=
78323 01440 72703 10235 20205 30061 40125 51006 69931 72162 84943
333 06999 10316 20218 30/// 57982 59012 69937 70003 84816 87081
819// 90405 91109 91530=
78326 01440 70401 10249 20226 30067 40120 53013 69991 72598 84973
333 10324 20209 31/// 56999 57963 59007 69937 70009 83819 85457
819//=
78327 11/65 63401 10/// 20/// 30075 40109 53008 60001 71392 82943
333 06990 10/// 20210 30/// 57916 59011 818// 84080 819// 90426
91111 91530=
78329 01/36 70901 10266 20229 30088 40110 51006 69931 70598 82938
333 10310 20213 30/// 56920 57981 59007 69937 70005 828// 87277
819//=
78330 12/20 70000 10276 20/// 30080 40109 51009 60001 70222 84908
333 10321 20205 31/// 56909 57981 59004 70212 848// 87270 839//=
78331 11/30 63601 10279 20245 30097 40110 51009 60001 70522 82232
333 01909 10300 20208 31/// 59004 70032 828// 83357=
78332 nil=
78334 11462 80000 10252 20223 39613 40106 52019 60001 70592 8322/
333 01999 10288 20208 32/// 58006 83810 88450=
78335 11530 71601 10278 20237 30070 40101 52013 60001 70592 84842
333 10311 20213 30/// 56999 57872 59005 70118 83820 86070=
78337 12550 70000 10274 20246 30090 40119 53019 60001 8587/ 333
10310 20237 31/// 56499 58003 70052 84823 86460 555 11803=
78338 01540 70000 10234 20218 30103 40118 52013 60121 70598 84972
333 06999 10302 20220 32/// 57910 59007 60127 70650 83821 86358
819//=
78339 01564 70000 10284 20220 30119 40123 53017 69901 72582 85923
333 10315 20244 31/// 56999 57930 58011 69907 79999 82820 86458
839// 92010 92312=
78340 01410 73002 10225 20210 30000 40112 53012 60141 79596 84963
333 10312 20212 31/// 54116 56799 57971 59007 60147 70142 82816
85358 87076 829// 90412 91110 91532=
78341 11420 71701 10261 20247 30079 40114 52009 60001 70522 8482/
333 10299 20214 30/// 56099 57946 58002 83817 87459 819//=
78342 11362 70000 10218 20208 39268 48448 53019 60001 71022 872//
333 01399 10262 20195 30/// 50054 59002 70021 87807 555 11203=
78343 01458 70000 10247 20219 39992 40126 53019 60051 78096 83222
333 10323 20216 31/// 56999 57841 58006 69937 70049 84817 85070=
78346 01507 70000 10263 20248 30095 40125 53022 69921 76162 85808
333 10288 20236 30/// 56900 58005 69927 70002 81820 85626 87275=
78347 12540 71501 10272 20239 30129 40147 53023 60001 878// 333
01999 10300 20220 31/// 58004 83820 85626=
78350 01505 80000 10260 20241 30053 40117 53018 69911 76162 8252/
333 0/999 10275 20230 31/// 58010 69917 70002 82626 88456=
78352 01520 72801 10262 20243 30087 40123 53019 69911 76162 879//
333 10283 20229 31/// 56999 57920 58011 69917 70001 81826 86633
819//=
78354 12530 60000 10269 20247 30009 40119 52014 60001 70322 86800
333 10288 20218 31/// 56900 58003 70011 83826 83630=
78356 12461 70000 10282 20248 30073 40119 52014 60001 85903 333
10317 20232 30/// 56909 57950 59006 83818 85070 829//=
78357 11556 70000 10277 20233 39993 40113 53012 60001 71792 84932
333 10301 20228 31/// 57910 58000 70004 83823 81925=
78359 11556 70000 10270 20248 30112 40115 52016 60031 70396 8792/
333 08999 10291 20234 31/// 57943 58008 70035 82820 83630 819//
92000=
78361 11/20 70701 10274 20253 30108 40123 53015 60001 71622 879//
333 10303 20232 31/// 57965 58001 70088 818// 87620 819//=
78362 12/80 70000 10272 20244 39989 40110 51016 60001 81233 333
10300 20224 31/// 56909 57885 58004 70028 818// 86358=
78364 11470 80000 10265 20249 30092 40135 51010 69931 70362 8422/
333 10281 20244 56999 57850 58012 70026 84713 88460=
78366 01/00 92404 10191 20191 38900 48426 51010 69921 74596 89///
333 10221 20176 31/// 59001 69917 70021=
78368 12513 72101 10268 20245 30061 40124 52010 60001 879// 333
06999 10290 20234 30/// 57950 58006 84820 839//=
78370 78370 11540 70000 10272 20246 30100 40124 51017 60001 70522
82270 333 02300 10290 20226 31/// 59002 70036 82820 87460 555
11301=
78371 11350 70000 10227 20217 39413 48526 5/011 60001 70522 87260
333 02490 10287 20195 31/// 57843 59003 70310 84706 84810 555
11802=
78372 12/42 70902 10268 20233 39969 40144 51014 60001 86831 333
10325 20230 31/// 56900 58004 60068 828// 84620=
78373 01457 70000 10212 20209 30025 40115 53014 60141 72996 85973
333 06299 10318 20212 31/// 57912 59008 60147 70142 84816 829//
90430 91114 91502 555 109//=
78374 01535 70000 10226 20206 39968 40107 53012 69921 71396 8397/
333 10311 20208 31/// 57980 59009 69927 70002 83820 87457 819//=
78375 01556 70404 10249 20209 30083 40112 55003 69901 72582 83963
333 06399 10327 20211 30/// 57922 59015 69907 79999 83820 85030
819// 555 11301=
78376 01410 73201 10225 20217 30032 40107 53019 60151 71798 8597/
333 06799 10307 20222 31/// 54116 57981 58004 60157 70154 84819
87359 819// 555 13202=
78377 11405 72501 10275 20257 30093 40127 52014 60001 70392 86802
333 10309 20226 31/// 56909 58007 79999 84818=
78378 11/40 60000 10265 20249 30037 40107 51011 60001 71322 82962
333 10295 20219 31/// 56909 57972 59001 70147 828// 85358 819//=



nnnn